{
    "links": {
        "self": "http://www.neowsapp.com/rest/v1/neo/3408240?api_key=iIulBulltgU6a56xZRHN4H3l9WmuAYTsLGpBGhQ2"
    },
    "id": "3408240",
    "neo_reference_id": "3408240",
    "name": "(2008 GF2)",
    "designation": "2008 GF2",
    "nasa_jpl_url": "http://ssd.jpl.nasa.gov/sbdb.cgi?sstr=3408240",
    "absolute_magnitude_h": 24.0,
    "estimated_diameter": {
        "kilometers": {
            "estimated_diameter_min": 0.0421264611,
            "estimated_diameter_max": 0.0941976306
        },
        "meters": {
            "estimated_diameter_min": 42.1264610556,
            "estimated_diameter_max": 94.1976305719
        },
        "miles": {
            "estimated_diameter_min": 0.0261761612,
            "estimated_diameter_max": 0.0585316759
        },
        "feet": {
            "estimated_diameter_min": 138.2101784897,
            "estimated_diameter_max": 309.0473542854
        }
    },
    "is_potentially_hazardous_asteroid": false,
    "close_approach_data": [
        {
            "close_approach_date": "2008-04-12",
            "close_approach_date_full": "2008-Apr-12 05:39",
            "epoch_date_close_approach": 1207978740000,
            "relative_velocity": {
                "kilometers_per_second": "9.5093541046",
                "kilometers_per_hour": "34233.6747765801",
                "miles_per_hour": "21271.4741965922"
            },
            "miss_distance": {
                "astronomical": "0.169119459",
                "lunar": "65.787469551",
                "kilometers": "25299910.84195233",
                "miles": "15720635.621628954"
            },
            "orbiting_body": "Earth"
        }
    ],
    "orbital_data": {
        "orbit_id": "8",
        "orbit_determination_date": "2017-04-06 09:03:48",
        "first_observation_date": "2008-04-05",
        "last_observation_date": "2008-04-13",
        "data_arc_in_days": 8,
        "observations_used": 36,
        "orbit_uncertainty": "9",
        "minimum_orbit_intersection": ".168911",
        "jupiter_tisserand_invariant": "3.857",
        "epoch_osculation": "2454562.5",
        "eccentricity": ".373940944359671",
        "semi_major_axis": "1.861223479206935",
        "inclination": "16.8561350311411",
        "ascending_node_longitude": "16.7868188212426",
        "orbital_period": "927.4621834038469",
        "perihelion_distance": "1.165235813727901",
        "perihelion_argument": "193.9270631533744",
        "aphelion_distance": "2.557211144685969",
        "perihelion_time": "2454577.919534554910",
        "mean_anomaly": "354.0148153325293",
        "mean_motion": ".3881559878579378",
        "equinox": "J2000",
        "orbit_class": {
            "orbit_class_type": "AMO",
            "orbit_class_description": "Near-Earth asteroid orbits similar to that of 1221 Amor",
            "orbit_class_range": "1.017 AU < q (perihelion) < 1.3 AU"
        }
    },
    "is_sentry_object": false
}